{
  "type": "FeatureCollection",
  "features": [
    {
      "type": "Feature",
      "properties": {
        "norad_id": 37238,
        "name": "INTELSAT 17 (IS-17)",
        "group": "intelsat",
        "lat": -0.021667641759571837,
        "lon": -81.85577074255752,
        "alt_km": 35776.361042874676,
        "timestamp": "2025-12-08T08:59:00.439805+00:00",
        "meta_object_name": "INTELSAT 17 (IS-17)",
        "meta_object_id": "2010-065B",
        "meta_epoch": "2025-12-07T19:05:08.062944",
        "meta_mean_motion": 1.00271817,
        "meta_eccentricity": 0.00024242,
        "meta_inclination": 0.0057,
        "meta_ra_of_asc_node": 324.0884,
        "meta_arg_of_pericenter": 294.7028,
        "meta_mean_anomaly": 170.3098,
        "meta_ephemeris_type": 0,
        "meta_classification_type": "U",
        "meta_norad_cat_id": 37238,
        "meta_element_set_no": 999,
        "meta_rev_at_epoch": 5132,
        "meta_bstar": 0,
        "meta_mean_motion_dot": 2e-08,
        "meta_mean_motion_ddot": 0,
        "tle_line1": "1 37238U 10065B   25341.79523221  .00000002  00000+0  00000+0 0  9991",
        "tle_line2": "2 37238   0.0057 324.0884 0002424 294.7028 170.3098  1.00271817 51326"
      },
      "geometry": {
        "type": "Point",
        "coordinates": [
          -81.85577074255752,
          -0.021667641759571837
        ]
      }
    },
    {
      "type": "Feature",
      "properties": {
        "norad_id": 37392,
        "name": "INTELSAT 28 (IS-28)",
        "group": "intelsat",
        "lat": 1.3008109317259726,
        "lon": -179.6253923223504,
        "alt_km": 35784.27112472887,
        "timestamp": "2025-12-08T08:59:00.439817+00:00",
        "meta_object_name": "INTELSAT 28 (IS-28)",
        "meta_object_id": "2011-016A",
        "meta_epoch": "2025-12-07T22:02:38.851008",
        "meta_mean_motion": 1.00270365,
        "meta_eccentricity": 0.00041487,
        "meta_inclination": 1.3119,
        "meta_ra_of_asc_node": 85.113,
        "meta_arg_of_pericenter": 178.528,
        "meta_mean_anomaly": 112.2458,
        "meta_ephemeris_type": 0,
        "meta_classification_type": "U",
        "meta_norad_cat_id": 37392,
        "meta_element_set_no": 999,
        "meta_rev_at_epoch": 5136,
        "meta_bstar": 0,
        "meta_mean_motion_dot": -2.22e-06,
        "meta_mean_motion_ddot": 0,
        "tle_line1": "1 37392U 11016A   25341.91850522 -.00000222  00000+0  00000+0 0  9995",
        "tle_line2": "2 37392   1.3119  85.1130 0004148 178.5280 112.2458  1.00270365 51369"
      },
      "geometry": {
        "type": "Point",
        "coordinates": [
          -179.6253923223504,
          1.3008109317259726
        ]
      }
    },
    {
      "type": "Feature",
      "properties": {
        "norad_id": 37834,
        "name": "INTELSAT 18 (IS-18)",
        "group": "intelsat",
        "lat": 0.03243926663839726,
        "lon": 32.14457135325553,
        "alt_km": 35792.22751474777,
        "timestamp": "2025-12-08T08:59:00.439829+00:00",
        "meta_object_name": "INTELSAT 18 (IS-18)",
        "meta_object_id": "2011-056A",
        "meta_epoch": "2025-12-07T19:24:14.679072",
        "meta_mean_motion": 1.00270807,
        "meta_eccentricity": 0.00021289,
        "meta_inclination": 0.0168,
        "meta_ra_of_asc_node": 332.6003,
        "meta_arg_of_pericenter": 288.5172,
        "meta_mean_anomaly": 286.7673,
        "meta_ephemeris_type": 0,
        "meta_classification_type": "U",
        "meta_norad_cat_id": 37834,
        "meta_element_set_no": 999,
        "meta_rev_at_epoch": 5189,
        "meta_bstar": 0,
        "meta_mean_motion_dot": 5.6e-07,
        "meta_mean_motion_ddot": 0,
        "tle_line1": "1 37834U 11056A   25341.80850323  .00000056  00000+0  00000+0 0  9991",
        "tle_line2": "2 37834   0.0168 332.6003 0002128 288.5172 286.7673  1.00270807 51892"
      },
      "geometry": {
        "type": "Point",
        "coordinates": [
          32.14457135325553,
          0.03243926663839726
        ]
      }
    },
    {
      "type": "Feature",
      "properties": {
        "norad_id": 38098,
        "name": "INTELSAT 22 (IS-22)",
        "group": "intelsat",
        "lat": -0.02562035370818946,
        "lon": -75.75730923529382,
        "alt_km": 35779.21064755957,
        "timestamp": "2025-12-08T08:59:00.439841+00:00",
        "meta_object_name": "INTELSAT 22 (IS-22)",
        "meta_object_id": "2012-011A",
        "meta_epoch": "2025-12-07T21:55:38.755200",
        "meta_mean_motion": 1.00271209,
        "meta_eccentricity": 0.00017426,
        "meta_inclination": 0.0105,
        "meta_ra_of_asc_node": 31.4111,
        "meta_arg_of_pericenter": 235.2551,
        "meta_mean_anomaly": 211.2821,
        "meta_ephemeris_type": 0,
        "meta_classification_type": "U",
        "meta_norad_cat_id": 38098,
        "meta_element_set_no": 999,
        "meta_rev_at_epoch": 527,
        "meta_bstar": 0,
        "meta_mean_motion_dot": -5.6e-07,
        "meta_mean_motion_ddot": 0,
        "tle_line1": "1 38098U 12011A   25341.91364300 -.00000056  00000+0  00000+0 0  9994",
        "tle_line2": "2 38098   0.0105  31.4111 0001742 235.2551 211.2821  1.00271209  5277"
      },
      "geometry": {
        "type": "Point",
        "coordinates": [
          -75.75730923529382,
          -0.02562035370818946
        ]
      }
    },
    {
      "type": "Feature",
      "properties": {
        "norad_id": 38356,
        "name": "INTELSAT 19 (IS-19)",
        "group": "intelsat",
        "lat": 0.024294654102495112,
        "lon": 18.175923792096956,
        "alt_km": 35792.17847644389,
        "timestamp": "2025-12-08T08:59:00.439853+00:00",
        "meta_object_name": "INTELSAT 19 (IS-19)",
        "meta_object_id": "2012-030A",
        "meta_epoch": "2025-12-07T19:50:38.705568",
        "meta_mean_motion": 1.00273111,
        "meta_eccentricity": 0.00037038,
        "meta_inclination": 0.0116,
        "meta_ra_of_asc_node": 322.0756,
        "meta_arg_of_pericenter": 301.7218,
        "meta_mean_anomaly": 276.7121,
        "meta_ephemeris_type": 0,
        "meta_classification_type": "U",
        "meta_norad_cat_id": 38356,
        "meta_element_set_no": 999,
        "meta_rev_at_epoch": 4853,
        "meta_bstar": 0,
        "meta_mean_motion_dot": -5.3e-07,
        "meta_mean_motion_ddot": 0,
        "tle_line1": "1 38356U 12030A   25341.82683687 -.00000053  00000+0  00000+0 0  9991",
        "tle_line2": "2 38356   0.0116 322.0756 0003703 301.7218 276.7121  1.00273111 48537"
      },
      "geometry": {
        "type": "Point",
        "coordinates": [
          18.175923792096956,
          0.024294654102495112
        ]
      }
    },
    {
      "type": "Feature",
      "properties": {
        "norad_id": 38740,
        "name": "INTELSAT 20 (IS-20)",
        "group": "intelsat",
        "lat": -0.00023474274427217636,
        "lon": -79.36303254734831,
        "alt_km": 35795.03470532396,
        "timestamp": "2025-12-08T08:59:00.439865+00:00",
        "meta_object_name": "INTELSAT 20 (IS-20)",
        "meta_object_id": "2012-043A",
        "meta_epoch": "2025-12-07T20:48:32.291424",
        "meta_mean_motion": 1.00256173,
        "meta_eccentricity": 0.00026391,
        "meta_inclination": 0.0039,
        "meta_ra_of_asc_node": 83.3168,
        "meta_arg_of_pericenter": 82.8308,
        "meta_mean_anomaly": 291.3783,
        "meta_ephemeris_type": 0,
        "meta_classification_type": "U",
        "meta_norad_cat_id": 38740,
        "meta_element_set_no": 999,
        "meta_rev_at_epoch": 4883,
        "meta_bstar": 0,
        "meta_mean_motion_dot": -1.8e-07,
        "meta_mean_motion_ddot": 0,
        "tle_line1": "1 38740U 12043A   25341.86704041 -.00000018  00000+0  00000+0 0  9995",
        "tle_line2": "2 38740   0.0039  83.3168 0002639  82.8308 291.3783  1.00256173 48835"
      },
      "geometry": {
        "type": "Point",
        "coordinates": [
          -79.36303254734831,
          -0.00023474274427217636
        ]
      }
    },
    {
      "type": "Feature",
      "properties": {
        "norad_id": 38749,
        "name": "INTELSAT 21 (IS-21)",
        "group": "intelsat",
        "lat": 0.01157213957746425,
        "lon": 154.10783103138564,
        "alt_km": 35787.84141906678,
        "timestamp": "2025-12-08T08:59:00.439877+00:00",
        "meta_object_name": "INTELSAT 21 (IS-21)",
        "meta_object_id": "2012-045A",
        "meta_epoch": "2025-12-07T21:55:09.568416",
        "meta_mean_motion": 1.00270803,
        "meta_eccentricity": 0.00022245,
        "meta_inclination": 0.0166,
        "meta_ra_of_asc_node": 357.8548,
        "meta_arg_of_pericenter": 254.9413,
        "meta_mean_anomaly": 94.9277,
        "meta_ephemeris_type": 0,
        "meta_classification_type": "U",
        "meta_norad_cat_id": 38749,
        "meta_element_set_no": 999,
        "meta_rev_at_epoch": 4860,
        "meta_bstar": 0,
        "meta_mean_motion_dot": -2.82e-06,
        "meta_mean_motion_ddot": 0,
        "tle_line1": "1 38749U 12045A   25341.91330519 -.00000282  00000+0  00000+0 0  9990",
        "tle_line2": "2 38749   0.0166 357.8548 0002224 254.9413  94.9277  1.00270803 48601"
      },
      "geometry": {
        "type": "Point",
        "coordinates": [
          154.10783103138564,
          0.01157213957746425
        ]
      }
    }
  ]
}